[{"OBJECT_NAME":"CELESTIS-17 & SHERPA-FX1","OBJECT_ID":"2021-006CB","EPOCH":"2026-03-09T15:26:05.078112","MEAN_MOTION":15.30994801,"ECCENTRICITY":0.000663,"INCLINATION":97.2397,"RA_OF_ASC_NODE":112.1052,"ARG_OF_PERICENTER":178.1385,"MEAN_ANOMALY":181.9882,"EPHEMERIS_TYPE":0,"CLASSIFICATION_TYPE":"U","NORAD_CAT_ID":47486,"ELEMENT_SET_NO":999,"REV_AT_EPOCH":28406,"BSTAR":0.00024301,"MEAN_MOTION_DOT":7.207e-5,"MEAN_MOTION_DDOT":0},{"OBJECT_NAME":"FREGAT DEB","OBJECT_ID":"2011-037BA","EPOCH":"2026-03-07T21:51:11.179584","MEAN_MOTION":11.85982955,"ECCENTRICITY":0.16068404,"INCLINATION":51.4778,"RA_OF_ASC_NODE":309.8732,"ARG_OF_PERICENTER":204.2893,"MEAN_ANOMALY":147.3247,"EPHEMERIS_TYPE":0,"CLASSIFICATION_TYPE":"U","NORAD_CAT_ID":45816,"ELEMENT_SET_NO":999,"REV_AT_EPOCH":24023,"BSTAR":0.0038548869,"MEAN_MOTION_DOT":0.00018183,"MEAN_MOTION_DDOT":0}]
